{"type": "FeatureCollection", "features": [ {"type": "Feature", "properties": {"norad_id": 37216, "name": "COSMO-SKYMED 4", "group": "resource", "lat": 47.41546990268771, "lon": 8.294696741375883, "alt_km": 617.76222250922, "timestamp": "2025-12-24T11:32:59.660659+00:00", "meta": {"OBJECT_NAME": "COSMO-SKYMED 4", "OBJECT_ID": "2010-060A", "EPOCH": "2025-12-24T04:28:33.155040", "MEAN_MOTION": 14.82156303, "ECCENTRICITY": 0.0001339, "INCLINATION": 97.8802, "RA_OF_ASC_NODE": 179.3369, "ARG_OF_PERICENTER": 80.887, "MEAN_ANOMALY": 279.2495, "EPHEMERIS_TYPE": 0, "CLASSIFICATION_TYPE": "U", "NORAD_CAT_ID": 37216, "ELEMENT_SET_NO": 999, "REV_AT_EPOCH": 81864, "BSTAR": 4.0115e-05, "MEAN_MOTION_DOT": 2.67e-06, "MEAN_MOTION_DDOT": 0}, "tle": {"line1": "1 37216U 10060A   25358.18649485  .00000267  00000+0  40115-4 0  9993", "line2": "2 37216  97.8802 179.3369 0001339  80.8870 279.2495 14.82156303818648"}}, "geometry": {"type": "Point", "coordinates": [8.294696741375883, 47.41546990268771]}}, {"type": "Feature", "properties": {"norad_id": 37387, "name": "RESOURCESAT-2", "group": "resource", "lat": 60.46747609590211, "lon": 46.13687877933984, "alt_km": 811.3901800983731, "timestamp": "2025-12-24T11:32:59.660670+00:00", "meta": {"OBJECT_NAME": "RESOURCESAT-2", "OBJECT_ID": "2011-015A", "EPOCH": "2025-12-24T02:48:54.407232", "MEAN_MOTION": 14.21601564, "ECCENTRICITY": 0.0005861, "INCLINATION": 98.7861, "RA_OF_ASC_NODE": 61.6173, "ARG_OF_PERICENTER": 11.5594, "MEAN_ANOMALY": 348.5716, "EPHEMERIS_TYPE": 0, "CLASSIFICATION_TYPE": "U", "NORAD_CAT_ID": 37387, "ELEMENT_SET_NO": 999, "REV_AT_EPOCH": 76130, "BSTAR": 8.3136e-05, "MEAN_MOTION_DOT": 1.38e-06, "MEAN_MOTION_DDOT": 0}, "tle": {"line1": "1 37387U 11015A   25358.11729638  .00000138  00000+0  83136-4 0  9992", "line2": "2 37387  98.7861  61.6173 0005861  11.5594 348.5716 14.21601564761309"}}, "geometry": {"type": "Point", "coordinates": [46.13687877933984, 60.46747609590211]}}, {"type": "Feature", "properties": {"norad_id": 37781, "name": "HAIYANG-2A", "group": "resource", "lat": 72.51192316197675, "lon": -149.28557003978747, "alt_km": 960.0495878774955, "timestamp": "2025-12-24T11:32:59.660681+00:00", "meta": {"OBJECT_NAME": "HAIYANG-2A", "OBJECT_ID": "2011-043A", "EPOCH": "2025-12-24T05:49:08.196672", "MEAN_MOTION": 13.78836801, "ECCENTRICITY": 0.0001609, "INCLINATION": 99.3375, "RA_OF_ASC_NODE": 358.9995, "ARG_OF_PERICENTER": 68.4957, "MEAN_ANOMALY": 291.6366, "EPHEMERIS_TYPE": 0, "CLASSIFICATION_TYPE": "U", "NORAD_CAT_ID": 37781, "ELEMENT_SET_NO": 999, "REV_AT_EPOCH": 72257, "BSTAR": 0.00027407, "MEAN_MOTION_DOT": 2.35e-06, "MEAN_MOTION_DDOT": 0}, "tle": {"line1": "1 37781U 11043A   25358.24245598  .00000235  00000+0  27407-3 0  9999", "line2": "2 37781  99.3375 358.9995 0001609  68.4957 291.6366 13.78836801722578"}}, "geometry": {"type": "Point", "coordinates": [-149.28557003978747, 72.51192316197675]}}, {"type": "Feature", "properties": {"norad_id": 37791, "name": "RASAT", "group": "resource", "lat": 20.32978608018975, "lon": 84.55341381449455, "alt_km": 652.8675433551598, "timestamp": "2025-12-24T11:32:59.660692+00:00", "meta": {"OBJECT_NAME": "RASAT", "OBJECT_ID": "2011-044D", "EPOCH": "2025-12-24T05:13:47.670240", "MEAN_MOTION": 14.67923544, "ECCENTRICITY": 0.0021343, "INCLINATION": 98.0647, "RA_OF_ASC_NODE": 87.3053, "ARG_OF_PERICENTER": 30.3817, "MEAN_ANOMALY": 39.5507, "EPHEMERIS_TYPE": 0, "CLASSIFICATION_TYPE": "U", "NORAD_CAT_ID": 37791, "ELEMENT_SET_NO": 999, "REV_AT_EPOCH": 76751, "BSTAR": 6.6861e-05, "MEAN_MOTION_DOT": 3.35e-06, "MEAN_MOTION_DDOT": 0}, "tle": {"line1": "1 37791U 11044D   25358.21791285  .00000335  00000+0  66861-4 0  9996", "line2": "2 37791  98.0647  87.3053 0021343  30.3817  39.5507 14.67923544767514"}}, "geometry": {"type": "Point", "coordinates": [84.55341381449455, 20.32978608018975]}}, {"type": "Feature", "properties": {"norad_id": 37841, "name": "SRMSAT", "group": "resource", "lat": 19.00038875398251, "lon": 145.44419670847498, "alt_km": 841.284001341478, "timestamp": "2025-12-24T11:32:59.660703+00:00", "meta": {"OBJECT_NAME": "SRMSAT", "OBJECT_ID": "2011-058D", "EPOCH": "2025-12-23T20:30:47.361312", "MEAN_MOTION": 14.11515025, "ECCENTRICITY": 0.00119943, "INCLINATION": 19.973, "RA_OF_ASC_NODE": 40.682, "ARG_OF_PERICENTER": 75.0703, "MEAN_ANOMALY": 81.788, "EPHEMERIS_TYPE": 0, "CLASSIFICATION_TYPE": "U", "NORAD_CAT_ID": 37841, "ELEMENT_SET_NO": 999, "REV_AT_EPOCH": 73301, "BSTAR": 8.1720318e-05, "MEAN_MOTION_DOT": 4.15e-06, "MEAN_MOTION_DDOT": 0}, "tle": {"line1": "1 37841U 11058D   25357.85471483  .00000415  00000+0  81720-4 0  9991", "line2": "2 37841  19.9730  40.6820 0011994  75.0703  81.7880 14.11515025733011"}}, "geometry": {"type": "Point", "coordinates": [145.44419670847498, 19.00038875398251]}}, {"type": "Feature", "properties": {"norad_id": 38012, "name": "PLEIADES 1A", "group": "resource", "lat": 38.199510891368654, "lon": -102.43164139389754, "alt_km": 694.6433216638488, "timestamp": "2025-12-24T11:32:59.660714+00:00", "meta": {"OBJECT_NAME": "PLEIADES 1A", "OBJECT_ID": "2011-076F", "EPOCH": "2025-12-24T04:42:25.093728", "MEAN_MOTION": 14.5857135, "ECCENTRICITY": 0.000109, "INCLINATION": 98.1811, "RA_OF_ASC_NODE": 70.7876, "ARG_OF_PERICENTER": 76.3115, "MEAN_ANOMALY": 8.6753, "EPHEMERIS_TYPE": 0, "CLASSIFICATION_TYPE": "U", "NORAD_CAT_ID": 38012, "ELEMENT_SET_NO": 999, "REV_AT_EPOCH": 74648, "BSTAR": 8.9486e-05, "MEAN_MOTION_DOT": 3.71e-06, "MEAN_MOTION_DDOT": 0}, "tle": {"line1": "1 38012U 11076F   25358.19612377  .00000371  00000+0  89486-4 0  9997", "line2": "2 38012  98.1811  70.7876 0001090  76.3115   8.6753 14.58571350746489"}}, "geometry": {"type": "Point", "coordinates": [-102.43164139389754, 38.199510891368654]}}, {"type": "Feature", "properties": {"norad_id": 38038, "name": "ZIYUAN 1-02C (ZY 1-02C)", "group": "resource", "lat": -78.36604492050611, "lon": -161.81293598362683, "alt_km": 777.2066175444452, "timestamp": "2025-12-24T11:32:59.660725+00:00", "meta": {"OBJECT_NAME": "ZIYUAN 1-02C (ZY 1-02C)", "OBJECT_ID": "2011-079A", "EPOCH": "2025-12-24T05:33:20.310912", "MEAN_MOTION": 14.38024666, "ECCENTRICITY": 0.000755, "INCLINATION": 98.4318, "RA_OF_ASC_NODE": 64.0329, "ARG_OF_PERICENTER": 108.6523, "MEAN_ANOMALY": 301.014, "EPHEMERIS_TYPE": 0, "CLASSIFICATION_TYPE": "U", "NORAD_CAT_ID": 38038, "ELEMENT_SET_NO": 999, "REV_AT_EPOCH": 73406, "BSTAR": 0.00020133, "MEAN_MOTION_DOT": 5.66e-06, "MEAN_MOTION_DDOT": 0}, "tle": {"line1": "1 38038U 11079A   25358.23148508  .00000566  00000+0  20133-3 0  9992", "line2": "2 38038  98.4318  64.0329 0007550 108.6523 301.0140 14.38024666734062"}}, "geometry": {"type": "Point", "coordinates": [-161.81293598362683, -78.36604492050611]}}, {"type": "Feature", "properties": {"norad_id": 38338, "name": "ARIRANG-3 (KOMPSAT-3)", "group": "resource", "lat": 7.925540286422156, "lon": 134.32945226170935, "alt_km": 691.4114764194919, "timestamp": "2025-12-24T11:32:59.660736+00:00", "meta": {"OBJECT_NAME": "ARIRANG-3 (KOMPSAT-3)", "OBJECT_ID": "2012-025B", "EPOCH": "2025-12-24T04:11:39.219072", "MEAN_MOTION": 14.61726905, "ECCENTRICITY": 0.000473, "INCLINATION": 98.3339, "RA_OF_ASC_NODE": 312.8513, "ARG_OF_PERICENTER": 297.8334, "MEAN_ANOMALY": 62.2387, "EPHEMERIS_TYPE": 0, "CLASSIFICATION_TYPE": "U", "NORAD_CAT_ID": 38338, "ELEMENT_SET_NO": 999, "REV_AT_EPOCH": 72577, "BSTAR": 0.00012207, "MEAN_MOTION_DOT": 5.6e-06, "MEAN_MOTION_DDOT": 0}, "tle": {"line1": "1 38338U 12025B   25358.17475948  .00000560  00000+0  12207-3 0  9998", "line2": "2 38338  98.3339 312.8513 0004730 297.8334  62.2387 14.61726905725772"}}, "geometry": {"type": "Point", "coordinates": [134.32945226170935, 7.925540286422156]}}, {"type": "Feature", "properties": {"norad_id": 38709, "name": "EXACTVIEW-1 (ADS-1B)", "group": "resource", "lat": 55.52125238480203, "lon": 93.82999222984716, "alt_km": 804.4101364779326, "timestamp": "2025-12-24T11:32:59.660746+00:00", "meta": {"OBJECT_NAME": "EXACTVIEW-1 (ADS-1B)", "OBJECT_ID": "2012-039C", "EPOCH": "2025-12-23T21:48:12.513024", "MEAN_MOTION": 14.24912191, "ECCENTRICITY": 0.0010178, "INCLINATION": 98.9638, "RA_OF_ASC_NODE": 106.5329, "ARG_OF_PERICENTER": 320.7138, "MEAN_ANOMALY": 39.3301, "EPHEMERIS_TYPE": 0, "CLASSIFICATION_TYPE": "U", "NORAD_CAT_ID": 38709, "ELEMENT_SET_NO": 999, "REV_AT_EPOCH": 69774, "BSTAR": 7.8139e-05, "MEAN_MOTION_DOT": 1.36e-06, "MEAN_MOTION_DDOT": 0}, "tle": {"line1": "1 38709U 12039C   25357.90847816  .00000136  00000+0  78139-4 0  9998", "line2": "2 38709  98.9638 106.5329 0010178 320.7138  39.3301 14.24912191697745"}}, "geometry": {"type": "Point", "coordinates": [93.82999222984716, 55.52125238480203]}}, {"type": "Feature", "properties": {"norad_id": 38755, "name": "SPOT 6", "group": "resource", "lat": 63.36333721531492, "lon": 46.434589871045866, "alt_km": 690.8473804964142, "timestamp": "2025-12-24T11:32:59.660757+00:00", "meta": {"OBJECT_NAME": "SPOT 6", "OBJECT_ID": "2012-047A", "EPOCH": "2025-12-24T04:40:09.183072", "MEAN_MOTION": 14.5854187, "ECCENTRICITY": 0.0001236, "INCLINATION": 98.1557, "RA_OF_ASC_NODE": 62.7672, "ARG_OF_PERICENTER": 78.4503, "MEAN_ANOMALY": 281.6835, "EPHEMERIS_TYPE": 0, "CLASSIFICATION_TYPE": "U", "NORAD_CAT_ID": 38755, "ELEMENT_SET_NO": 999, "REV_AT_EPOCH": 70754, "BSTAR": 8.809e-05, "MEAN_MOTION_DOT": 3.64e-06, "MEAN_MOTION_DDOT": 0}, "tle": {"line1": "1 38755U 12047A   25358.19455073  .00000364  00000+0  88090-4 0  9990", "line2": "2 38755  98.1557  62.7672 0001236  78.4503 281.6835 14.58541870707543"}}, "geometry": {"type": "Point", "coordinates": [46.434589871045866, 63.36333721531492]}}]}